{"type": "FeatureCollection", "features": [{"type": "Feature", "properties": {"norad_id": 28054, "name": "DMSP 5D-3 F16 (USA 172)", "group": "weather", "lat": -80.55318046587573, "lon": 87.59556105161936, "alt_km": 847.1746376716937, "timestamp": "2025-12-23T16:57:11.987786+00:00", "meta": {"OBJECT_NAME": "DMSP 5D-3 F16 (USA 172)", "OBJECT_ID": "2003-048A", "EPOCH": "2025-12-23T05:49:14.257632", "MEAN_MOTION": 14.14427813, "ECCENTRICITY": 0.00062564, "INCLINATION": 99.0038, "RA_OF_ASC_NODE": 14.7818, "ARG_OF_PERICENTER": 287.2268, "MEAN_ANOMALY": 145.0004, "EPHEMERIS_TYPE": 0, "CLASSIFICATION_TYPE": "U", "NORAD_CAT_ID": 28054, "ELEMENT_SET_NO": 999, "REV_AT_EPOCH": 14461, "BSTAR": 8.0372641e-05, "MEAN_MOTION_DOT": 1.08e-06, "MEAN_MOTION_DDOT": 0}, "tle": {"line1": "1 28054U 03048A   25357.24252613  .00000108  00000+0  80373-4 0  9994", "line2": "2 28054  99.0038  14.7818 0006256 287.2268 145.0004 14.14427813144618"}}, "geometry": {"type": "Point", "coordinates": [87.59556105161936, -80.55318046587573]}}, {"type": "Feature", "properties": {"norad_id": 28912, "name": "METEOSAT-9 (MSG-2)", "group": "weather", "lat": -3.5654958970957624, "lon": 32.5659742617948, "alt_km": 35636.63855583662, "timestamp": "2025-12-23T16:57:11.987835+00:00", "meta": {"OBJECT_NAME": "METEOSAT-9 (MSG-2)", "OBJECT_ID": "2005-049B", "EPOCH": "2025-12-22T18:31:08.664384", "MEAN_MOTION": 1.00267705, "ECCENTRICITY": 0.00617708, "INCLINATION": 8.9523, "RA_OF_ASC_NODE": 55.8676, "ARG_OF_PERICENTER": 281.9132, "MEAN_ANOMALY": 76.5371, "EPHEMERIS_TYPE": 0, "CLASSIFICATION_TYPE": "U", "NORAD_CAT_ID": 28912, "ELEMENT_SET_NO": 999, "REV_AT_EPOCH": 522, "BSTAR": 0, "MEAN_MOTION_DOT": 1.44e-06, "MEAN_MOTION_DDOT": 0}, "tle": {"line1": "1 28912U 05049B   25356.77162806  .00000144  00000+0  00000+0 0  9995", "line2": "2 28912   8.9523  55.8676 0061770 281.9132  76.5371  1.00267705  5221"}}, "geometry": {"type": "Point", "coordinates": [32.5659742617948, -3.5654958970957624]}}, {"type": "Feature", "properties": {"norad_id": 29522, "name": "DMSP 5D-3 F17 (USA 191)", "group": "weather", "lat": -51.83986268302051, "lon": 171.5787434401125, "alt_km": 844.0695859039861, "timestamp": "2025-12-23T16:57:11.987853+00:00", "meta": {"OBJECT_NAME": "DMSP 5D-3 F17 (USA 191)", "OBJECT_ID": "2006-050A", "EPOCH": "2025-12-23T02:16:48.630720", "MEAN_MOTION": 14.1492397, "ECCENTRICITY": 0.00098459, "INCLINATION": 98.7391, "RA_OF_ASC_NODE": 2.2685, "ARG_OF_PERICENTER": 193.8687, "MEAN_ANOMALY": 166.2218, "EPHEMERIS_TYPE": 0, "CLASSIFICATION_TYPE": "U", "NORAD_CAT_ID": 29522, "ELEMENT_SET_NO": 999, "REV_AT_EPOCH": 98751, "BSTAR": 9.605131e-05, "MEAN_MOTION_DOT": 1.42e-06, "MEAN_MOTION_DDOT": 0}, "tle": {"line1": "1 29522U 06050A   25357.09500730  .00000142  00000+0  96051-4 0  9998", "line2": "2 29522  98.7391   2.2685 0009845 193.8687 166.2218 14.14923970987516"}}, "geometry": {"type": "Point", "coordinates": [171.5787434401125, -51.83986268302051]}}, {"type": "Feature", "properties": {"norad_id": 32958, "name": "FENGYUN 3A", "group": "weather", "lat": 51.48673772694247, "lon": 128.05821947883558, "alt_km": 826.8296457012857, "timestamp": "2025-12-23T16:57:11.987867+00:00", "meta": {"OBJECT_NAME": "FENGYUN 3A", "OBJECT_ID": "2008-026A", "EPOCH": "2025-12-22T20:03:12.943008", "MEAN_MOTION": 14.19517515, "ECCENTRICITY": 0.00076474, "INCLINATION": 98.6712, "RA_OF_ASC_NODE": 296.1503, "ARG_OF_PERICENTER": 277.7214, "MEAN_ANOMALY": 82.3094, "EPHEMERIS_TYPE": 0, "CLASSIFICATION_TYPE": "U", "NORAD_CAT_ID": 32958, "ELEMENT_SET_NO": 999, "REV_AT_EPOCH": 91038, "BSTAR": 5.9361681e-05, "MEAN_MOTION_DOT": 8.2e-07, "MEAN_MOTION_DDOT": 0}, "tle": {"line1": "1 32958U 08026A   25356.83556647  .00000082  00000+0  59362-4 0  9996", "line2": "2 32958  98.6712 296.1503 0007647 277.7214  82.3094 14.19517515910388"}}, "geometry": {"type": "Point", "coordinates": [128.05821947883558, 51.48673772694247]}}, {"type": "Feature", "properties": {"norad_id": 35491, "name": "GOES 14", "group": "weather", "lat": 0.6943525732002357, "lon": -129.8786542185454, "alt_km": 35833.25311628761, "timestamp": "2025-12-23T16:57:11.987882+00:00", "meta": {"OBJECT_NAME": "GOES 14", "OBJECT_ID": "2009-033A", "EPOCH": "2025-12-23T05:51:50.753952", "MEAN_MOTION": 1.00097012, "ECCENTRICITY": 5.808e-05, "INCLINATION": 1.2294, "RA_OF_ASC_NODE": 85.2984, "ARG_OF_PERICENTER": 188.1226, "MEAN_ANOMALY": 150.2002, "EPHEMERIS_TYPE": 0, "CLASSIFICATION_TYPE": "U", "NORAD_CAT_ID": 35491, "ELEMENT_SET_NO": 999, "REV_AT_EPOCH": 482, "BSTAR": 0, "MEAN_MOTION_DOT": 2.9e-07, "MEAN_MOTION_DDOT": 0}, "tle": {"line1": "1 35491U 09033A   25357.24433743  .00000029  00000+0  00000+0 0  9998", "line2": "2 35491   1.2294  85.2984 0000580 188.1226 150.2002  1.00097012  4823"}}, "geometry": {"type": "Point", "coordinates": [-129.8786542185454, 0.6943525732002357]}}, {"type": "Feature", "properties": {"norad_id": 35951, "name": "DMSP 5D-3 F18 (USA 210)", "group": "weather", "lat": 80.1182141346915, "lon": -142.0586433593639, "alt_km": 831.472469130862, "timestamp": "2025-12-23T16:57:11.987895+00:00", "meta": {"OBJECT_NAME": "DMSP 5D-3 F18 (USA 210)", "OBJECT_ID": "2009-057A", "EPOCH": "2025-12-23T02:55:53.256288", "MEAN_MOTION": 14.14775935, "ECCENTRICITY": 0.00117719, "INCLINATION": 98.8847, "RA_OF_ASC_NODE": 333.4715, "ARG_OF_PERICENTER": 35.3507, "MEAN_ANOMALY": 324.8444, "EPHEMERIS_TYPE": 0, "CLASSIFICATION_TYPE": "U", "NORAD_CAT_ID": 35951, "ELEMENT_SET_NO": 999, "REV_AT_EPOCH": 83469, "BSTAR": 0.0001688268, "MEAN_MOTION_DOT": 2.81e-06, "MEAN_MOTION_DDOT": 0}, "tle": {"line1": "1 35951U 09057A   25357.12214417  .00000281  00000+0  16883-3 0  9997", "line2": "2 35951  98.8847 333.4715 0011771  35.3507 324.8444 14.14775935834690"}}, "geometry": {"type": "Point", "coordinates": [-142.0586433593639, 80.1182141346915]}}, {"type": "Feature", "properties": {"norad_id": 36411, "name": "EWS-G2 (GOES 15)", "group": "weather", "lat": -0.5011079598545586, "lon": 48.18375826751232, "alt_km": 35805.0721231858, "timestamp": "2025-12-23T16:57:11.987909+00:00", "meta": {"OBJECT_NAME": "EWS-G2 (GOES 15)", "OBJECT_ID": "2010-008A", "EPOCH": "2025-12-23T04:42:38.708640", "MEAN_MOTION": 1.00271104, "ECCENTRICITY": 0.00055146, "INCLINATION": 0.838, "RA_OF_ASC_NODE": 86.0715, "ARG_OF_PERICENTER": 178.5154, "MEAN_ANOMALY": 319.4215, "EPHEMERIS_TYPE": 0, "CLASSIFICATION_TYPE": "U", "NORAD_CAT_ID": 36411, "ELEMENT_SET_NO": 999, "REV_AT_EPOCH": 5787, "BSTAR": 0, "MEAN_MOTION_DOT": 5.9e-07, "MEAN_MOTION_DDOT": 0}, "tle": {"line1": "1 36411U 10008A   25357.19628135  .00000059  00000+0  00000+0 0  9993", "line2": "2 36411   0.8380  86.0715 0005514 178.5154 319.4215  1.00271104 57877"}}, "geometry": {"type": "Point", "coordinates": [48.18375826751232, -0.5011079598545586]}}, {"type": "Feature", "properties": {"norad_id": 36744, "name": "COMS 1", "group": "weather", "lat": 2.653667984224936, "lon": 114.88277521004382, "alt_km": 35789.31883480265, "timestamp": "2025-12-23T16:57:11.987922+00:00", "meta": {"OBJECT_NAME": "COMS 1", "OBJECT_ID": "2010-032A", "EPOCH": "2025-12-22T21:34:51.646368", "MEAN_MOTION": 1.00271059, "ECCENTRICITY": 7.731e-05, "INCLINATION": 4.3632, "RA_OF_ASC_NODE": 77.8837, "ARG_OF_PERICENTER": 211.4503, "MEAN_ANOMALY": 254.2562, "EPHEMERIS_TYPE": 0, "CLASSIFICATION_TYPE": "U", "NORAD_CAT_ID": 36744, "ELEMENT_SET_NO": 999, "REV_AT_EPOCH": 4932, "BSTAR": 0, "MEAN_MOTION_DOT": -3.25e-06, "MEAN_MOTION_DDOT": 0}, "tle": {"line1": "1 36744U 10032A   25356.89920887 -.00000325  00000+0  00000+0 0  9991", "line2": "2 36744   4.3632  77.8837 0000773 211.4503 254.2562  1.00271059 49326"}}, "geometry": {"type": "Point", "coordinates": [114.88277521004382, 2.653667984224936]}}, {"type": "Feature", "properties": {"norad_id": 37214, "name": "FENGYUN 3B", "group": "weather", "lat": 58.59073501197636, "lon": 22.735847817172687, "alt_km": 838.1970505728214, "timestamp": "2025-12-23T16:57:11.987934+00:00", "meta": {"OBJECT_NAME": "FENGYUN 3B", "OBJECT_ID": "2010-059A", "EPOCH": "2025-12-23T07:07:48.334080", "MEAN_MOTION": 14.14791632, "ECCENTRICITY": 0.00215695, "INCLINATION": 98.9889, "RA_OF_ASC_NODE": 37.3476, "ARG_OF_PERICENTER": 327.629, "MEAN_ANOMALY": 168.4414, "EPHEMERIS_TYPE": 0, "CLASSIFICATION_TYPE": "U", "NORAD_CAT_ID": 37214, "ELEMENT_SET_NO": 999, "REV_AT_EPOCH": 78255, "BSTAR": -2.953913e-06, "MEAN_MOTION_DOT": -5.1e-07, "MEAN_MOTION_DDOT": 0}, "tle": {"line1": "1 37214U 10059A   25357.29708720 -.00000051  00000+0 -29539-5 0  9999", "line2": "2 37214  98.9889  37.3476 0021569 327.6290 168.4414 14.14791632782555"}}, "geometry": {"type": "Point", "coordinates": [22.735847817172687, 58.59073501197636]}}, {"type": "Feature", "properties": {"norad_id": 37849, "name": "SUOMI NPP", "group": "weather", "lat": 80.53176469972342, "lon": -132.95591518902742, "alt_km": 817.8060013130289, "timestamp": "2025-12-23T16:57:11.987946+00:00", "meta": {"OBJECT_NAME": "SUOMI NPP", "OBJECT_ID": "2011-061A", "EPOCH": "2025-12-22T15:10:21.732672", "MEAN_MOTION": 14.19516903, "ECCENTRICITY": 0.00024883, "INCLINATION": 98.7787, "RA_OF_ASC_NODE": 293.8852, "ARG_OF_PERICENTER": 103.0781, "MEAN_ANOMALY": 257.0673, "EPHEMERIS_TYPE": 0, "CLASSIFICATION_TYPE": "U", "NORAD_CAT_ID": 37849, "ELEMENT_SET_NO": 999, "REV_AT_EPOCH": 73339, "BSTAR": 6.3406935e-05, "MEAN_MOTION_DOT": 8.9e-07, "MEAN_MOTION_DDOT": 0}, "tle": {"line1": "1 37849U 11061A   25356.63219598  .00000089  00000+0  63407-4 0  9994", "line2": "2 37849  98.7787 293.8852 0002488 103.0781 257.0673 14.19516903733392"}}, "geometry": {"type": "Point", "coordinates": [-132.95591518902742, 80.53176469972342]}}]}